{
  "type": "FeatureCollection",
  "features": [
    {
      "type": "Feature",
      "properties": {
        "norad_id": 34886,
        "name": "COSMOS 2251 DEB",
        "group": "cosmos-2251-debris",
        "lat": 17.303630632156057,
        "lon": -177.91899253260294,
        "alt_km": 429.5256959806429,
        "timestamp": "2025-12-14T14:39:29.764515+00:00",
        "meta_object_name": "COSMOS 2251 DEB",
        "meta_object_id": "1993-036ACZ",
        "meta_epoch": "2025-12-13T21:25:05.379168",
        "meta_mean_motion": 15.38859949,
        "meta_eccentricity": 0.00306549,
        "meta_inclination": 73.9501,
        "meta_ra_of_asc_node": 178.4925,
        "meta_arg_of_pericenter": 1.8054,
        "meta_mean_anomaly": 358.3257,
        "meta_ephemeris_type": 0,
        "meta_classification_type": "U",
        "meta_norad_cat_id": 34886,
        "meta_element_set_no": 999,
        "meta_rev_at_epoch": 63016,
        "meta_bstar": 0.0017695785,
        "meta_mean_motion_dot": 0.00069737,
        "meta_mean_motion_ddot": 0,
        "tle_line1": "1 34886U 93036ACZ 25347.89242337  .00069737  00000+0  17696-2 0  9991",
        "tle_line2": "2 34886  73.9501 178.4925 0030654   1.8054 358.3257 15.38859949630168"
      },
      "geometry": {
        "type": "Point",
        "coordinates": [
          -177.91899253260294,
          17.303630632156057
        ]
      }
    },
    {
      "type": "Feature",
      "properties": {
        "norad_id": 34907,
        "name": "COSMOS 2251 DEB",
        "group": "cosmos-2251-debris",
        "lat": -12.34061326519389,
        "lon": 40.71549413827399,
        "alt_km": 420.08012009860977,
        "timestamp": "2025-12-14T14:39:29.764525+00:00",
        "meta_object_name": "COSMOS 2251 DEB",
        "meta_object_id": "1993-036ADC",
        "meta_epoch": "2025-12-13T21:37:21.110592",
        "meta_mean_motion": 15.45090165,
        "meta_eccentricity": 0.00204412,
        "meta_inclination": 73.9706,
        "meta_ra_of_asc_node": 45.8736,
        "meta_arg_of_pericenter": 339.7109,
        "meta_mean_anomaly": 20.3287,
        "meta_ephemeris_type": 0,
        "meta_classification_type": "U",
        "meta_norad_cat_id": 34907,
        "meta_element_set_no": 999,
        "meta_rev_at_epoch": 87991,
        "meta_bstar": 0.0077288199,
        "meta_mean_motion_dot": 0.0038692,
        "meta_mean_motion_ddot": 0,
        "tle_line1": "1 34907U 93036ADC 25347.90093878  .00386920  00000+0  77288-2 0  9990",
        "tle_line2": "2 34907  73.9706  45.8736 0020441 339.7109  20.3287 15.45090165879915"
      },
      "geometry": {
        "type": "Point",
        "coordinates": [
          40.71549413827399,
          -12.34061326519389
        ]
      }
    },
    {
      "type": "Feature",
      "properties": {
        "norad_id": 34908,
        "name": "COSMOS 2251 DEB",
        "group": "cosmos-2251-debris",
        "lat": 31.576054742653298,
        "lon": 30.336580781781947,
        "alt_km": 736.3174222068483,
        "timestamp": "2025-12-14T14:39:29.764535+00:00",
        "meta_object_name": "COSMOS 2251 DEB",
        "meta_object_id": "1993-036ADD",
        "meta_epoch": "2025-12-13T20:56:40.633728",
        "meta_mean_motion": 14.37402859,
        "meta_eccentricity": 0.00400909,
        "meta_inclination": 74.0595,
        "meta_ra_of_asc_node": 21.5748,
        "meta_arg_of_pericenter": 37.2863,
        "meta_mean_anomaly": 138.1134,
        "meta_ephemeris_type": 0,
        "meta_classification_type": "U",
        "meta_norad_cat_id": 34908,
        "meta_element_set_no": 999,
        "meta_rev_at_epoch": 87295,
        "meta_bstar": 0.00064569198,
        "meta_mean_motion_dot": 1.922e-05,
        "meta_mean_motion_ddot": 0,
        "tle_line1": "1 34908U 93036ADD 25347.87269252  .00001922  00000+0  64569-3 0  9993",
        "tle_line2": "2 34908  74.0595  21.5748 0040090  37.2863 138.1134 14.37402859872950"
      },
      "geometry": {
        "type": "Point",
        "coordinates": [
          30.336580781781947,
          31.576054742653298
        ]
      }
    },
    {
      "type": "Feature",
      "properties": {
        "norad_id": 34909,
        "name": "COSMOS 2251 DEB",
        "group": "cosmos-2251-debris",
        "lat": 70.20496810853804,
        "lon": 125.6872956464964,
        "alt_km": 666.7569175647104,
        "timestamp": "2025-12-14T14:39:29.764545+00:00",
        "meta_object_name": "COSMOS 2251 DEB",
        "meta_object_id": "1993-036ADE",
        "meta_epoch": "2025-12-13T12:18:21.051360",
        "meta_mean_motion": 14.77848388,
        "meta_eccentricity": 0.00844579,
        "meta_inclination": 74.0144,
        "meta_ra_of_asc_node": 75.0514,
        "meta_arg_of_pericenter": 210.7068,
        "meta_mean_anomaly": 148.9152,
        "meta_ephemeris_type": 0,
        "meta_classification_type": "U",
        "meta_norad_cat_id": 34909,
        "meta_element_set_no": 999,
        "meta_rev_at_epoch": 66863,
        "meta_bstar": 0.000958712,
        "meta_mean_motion_dot": 7.287e-05,
        "meta_mean_motion_ddot": 0,
        "tle_line1": "1 34909U 93036ADE 25347.51274365  .00007287  00000+0  95871-3 0  9996",
        "tle_line2": "2 34909  74.0144  75.0514 0084457 210.7068 148.9152 14.77848388668638"
      },
      "geometry": {
        "type": "Point",
        "coordinates": [
          125.6872956464964,
          70.20496810853804
        ]
      }
    },
    {
      "type": "Feature",
      "properties": {
        "norad_id": 34910,
        "name": "COSMOS 2251 DEB",
        "group": "cosmos-2251-debris",
        "lat": 10.491871645511365,
        "lon": -84.5986218067065,
        "alt_km": 875.915654187168,
        "timestamp": "2025-12-14T14:39:29.764560+00:00",
        "meta_object_name": "COSMOS 2251 DEB",
        "meta_object_id": "1993-036ADF",
        "meta_epoch": "2025-12-13T14:33:30.777408",
        "meta_mean_motion": 13.37685021,
        "meta_eccentricity": 0.04682159,
        "meta_inclination": 73.876,
        "meta_ra_of_asc_node": 100.0561,
        "meta_arg_of_pericenter": 218.8737,
        "meta_mean_anomaly": 160.0706,
        "meta_ephemeris_type": 0,
        "meta_classification_type": "U",
        "meta_norad_cat_id": 34910,
        "meta_element_set_no": 999,
        "meta_rev_at_epoch": 81536,
        "meta_bstar": 0.0017010511,
        "meta_mean_motion_dot": 1.661e-05,
        "meta_mean_motion_ddot": 0,
        "tle_line1": "1 34910U 93036ADF 25347.60660622  .00001661  00000+0  17011-2 0  9992",
        "tle_line2": "2 34910  73.8760 100.0561 0468215 218.8737 160.0706 13.37685021815364"
      },
      "geometry": {
        "type": "Point",
        "coordinates": [
          -84.5986218067065,
          10.491871645511365
        ]
      }
    },
    {
      "type": "Feature",
      "properties": {
        "norad_id": 34911,
        "name": "COSMOS 2251 DEB",
        "group": "cosmos-2251-debris",
        "lat": 48.38871721513073,
        "lon": -100.02592887451067,
        "alt_km": 648.4349157374909,
        "timestamp": "2025-12-14T14:39:29.764570+00:00",
        "meta_object_name": "COSMOS 2251 DEB",
        "meta_object_id": "1993-036ADG",
        "meta_epoch": "2025-12-13T11:16:26.849280",
        "meta_mean_motion": 14.59374488,
        "meta_eccentricity": 0.00836226,
        "meta_inclination": 74.041,
        "meta_ra_of_asc_node": 243.3529,
        "meta_arg_of_pericenter": 8.556,
        "meta_mean_anomaly": 169.7858,
        "meta_ephemeris_type": 0,
        "meta_classification_type": "U",
        "meta_norad_cat_id": 34911,
        "meta_element_set_no": 999,
        "meta_rev_at_epoch": 88597,
        "meta_bstar": 0.0002543266,
        "meta_mean_motion_dot": 1.232e-05,
        "meta_mean_motion_ddot": 0,
        "tle_line1": "1 34911U 93036ADG 25347.46975520  .00001232  00000+0  25433-3 0  9995",
        "tle_line2": "2 34911  74.0410 243.3529 0083622   8.5560 169.7858 14.59374488885973"
      },
      "geometry": {
        "type": "Point",
        "coordinates": [
          -100.02592887451067,
          48.38871721513073
        ]
      }
    },
    {
      "type": "Feature",
      "properties": {
        "norad_id": 34913,
        "name": "COSMOS 2251 DEB",
        "group": "cosmos-2251-debris",
        "lat": -62.14681035179368,
        "lon": 131.88753443717266,
        "alt_km": 794.5253611330718,
        "timestamp": "2025-12-14T14:39:29.764580+00:00",
        "meta_object_name": "COSMOS 2251 DEB",
        "meta_object_id": "1993-036ADJ",
        "meta_epoch": "2025-12-13T12:56:38.472288",
        "meta_mean_motion": 14.34637945,
        "meta_eccentricity": 0.00203757,
        "meta_inclination": 74.0284,
        "meta_ra_of_asc_node": 281.0321,
        "meta_arg_of_pericenter": 30.7723,
        "meta_mean_anomaly": 84.8293,
        "meta_ephemeris_type": 0,
        "meta_classification_type": "U",
        "meta_norad_cat_id": 34913,
        "meta_element_set_no": 999,
        "meta_rev_at_epoch": 65199,
        "meta_bstar": 8.4132523e-05,
        "meta_mean_motion_dot": 2.12e-06,
        "meta_mean_motion_ddot": 0,
        "tle_line1": "1 34913U 93036ADJ 25347.53933417  .00000212  00000+0  84133-4 0  9994",
        "tle_line2": "2 34913  74.0284 281.0321 0020375  30.7723  84.8293 14.34637945651993"
      },
      "geometry": {
        "type": "Point",
        "coordinates": [
          131.88753443717266,
          -62.14681035179368
        ]
      }
    }
  ]
}